OBJECT_NAME,OBJECT_ID,EPOCH,MEAN_MOTION,ECCENTRICITY,INCLINATION,RA_OF_ASC_NODE,ARG_OF_PERICENTER,MEAN_ANOMALY,EPHEMERIS_TYPE,CLASSIFICATION_TYPE,NORAD_CAT_ID,ELEMENT_SET_NO,REV_AT_EPOCH,BSTAR,MEAN_MOTION_DOT,MEAN_MOTION_DDOT
ONEWEB-0578,2023-043X,2026-06-19T05:19:51.536928,13.21824713,.00023258,87.9255,243.5676,96.2875,263.8524,0,U,56067,999,15850,.26298016E-3,.122E-5,0
ONEWEB-0579,2023-043Y,2026-06-19T05:07:45.473664,13.21826281,.00017609,87.9261,243.5659,103.7962,256.3368,0,U,56068,999,15851,.19006689E-4,.21E-6,0
ONEWEB-0581,2023-043Z,2026-06-19T04:51:08.003808,13.16593040,.00020077,87.9096,228.3843,81.2651,278.8707,0,U,56069,999,15922,-.14787136E-3,-.44E-6,0
ONEWEB-0609,2023-043AA,2026-06-19T05:38:17.550240,13.15549860,.00020232,87.9001,258.8037,102.8470,257.2887,0,U,56070,999,15670,.38984039E-3,.16E-5,0
ONEWEB-0613,2023-043AB,2026-06-19T05:34:51.270240,13.15550159,.00018414,87.8997,258.8164,108.6347,251.4984,0,U,56071,999,15670,.55197313E-3,.221E-5,0
ONEWEB-0630,2023-043AC,2026-06-19T05:28:01.290144,13.15547385,.00017988,87.9005,258.7888,105.1197,255.0133,0,U,56072,999,15669,.23955776E-3,.103E-5,0
ONEWEB-0632,2023-043AD,2026-06-19T05:21:11.407680,13.15548984,.0001898,87.9002,258.8078,95.7560,264.3786,0,U,56073,999,15669,.31863069E-3,.133E-5,0
ONEWEB-0633,2023-043AE,2026-06-19T05:12:03.048480,13.15546758,.00018853,87.9010,258.7847,112.9595,247.1734,0,U,56074,999,15667,.27113057E-3,.115E-5,0
ONEWEB-0634,2023-043AF,2026-06-19T04:51:31.608288,13.15548963,.00023402,87.9002,258.8275,103.2876,256.8515,0,U,56075,999,15666,-.15650803E-3,-.46E-6,0
ONEWEB-0635,2023-043AG,2026-06-19T04:44:39.328224,13.15548017,.00019426,87.9012,258.7910,92.6599,267.4754,0,U,56076,999,15669,-.6537177E-3,-.233E-5,0
ONEWEB-0636,2023-043AH,2026-06-19T06:22:47.345664,13.15549916,.00019598,87.9011,258.7840,94.8081,265.3273,0,U,56077,999,15668,-.3558796E-3,-.121E-5,0
ONEWEB-0637,2023-043AJ,2026-06-19T06:13:40.275552,13.15549102,.00022421,87.9004,258.8016,95.3266,264.8120,0,U,56078,999,15670,-.4488487E-4,-.4E-7,0
ONEWEB-0647,2023-043AK,2026-06-19T06:06:49.911840,13.15549225,.00018239,87.9003,258.8151,98.8381,261.2956,0,U,56079,999,15669,.15655382E-3,.72E-6,0
ONEWEB-0651,2023-043AL,2026-06-19T05:59:58.910496,13.15549411,.00020723,87.9002,258.8096,93.7312,266.4055,0,U,56080,999,15789,.5022943E-3,.202E-5,0
ONEWEB-0718,2023-043AM,2026-06-19T05:53:07.211040,13.15545283,.00024745,87.9002,258.7912,112.8648,247.2744,0,U,56081,999,15670,.12911906E-2,.499E-5,0
ONEWEB-0561,2023-068A,2026-06-19T05:50:04.809408,13.20773099,.00017038,87.9195,274.0334,91.9676,268.1653,0,U,56710,999,14977,.2524531E-3,.116E-5,0
ONEWEB-0668,2023-068B,2026-06-19T02:25:13.958400,13.16594602,.00026023,87.9096,228.3924,97.3576,262.7851,0,U,56711,999,15203,.70006671E-4,.4E-6,0
ONEWEB-0676,2023-068C,2026-06-19T04:26:03.320160,13.16593488,.00019981,87.9098,228.3818,88.0664,272.0695,0,U,56712,999,15196,-.14070885E-4,.7E-7,0
ONEWEB-0677,2023-068D,2026-06-19T05:33:06.110208,13.20770647,.00022257,87.9198,274.0272,91.4663,268.6725,0,U,56713,999,15007,.33877873E-3,.151E-5,0
ONEWEB-0678,2023-068E,2026-06-19T05:07:29.741952,13.15548435,.00017169,87.9009,258.7898,103.4028,256.7293,0,U,56714,999,14955,.1494437E-3,.69E-6,0
ONEWEB-0679,2023-068F,2026-06-19T05:16:12.401472,13.16601138,.00024306,87.9085,228.3664,90.4319,269.7090,0,U,56715,999,15199,.2444561E-2,.948E-5,0
ONEWEB-0680,2023-068G,2026-06-19T05:10:08.697216,13.21828037,.00025994,87.9260,243.5677,96.0482,264.0949,0,U,56716,999,15136,.19477975E-3,.93E-6,0
ONEWEB-0681,2023-068H,2026-06-19T04:42:17.633088,13.21827416,.0001875,87.9256,243.5726,70.6636,289.4700,0,U,56717,999,15135,-.30770881E-4,0,0
ONEWEB-0682,2023-068J,2026-06-19T05:41:43.944288,13.15549472,.00024968,87.9009,258.7856,97.5189,262.6225,0,U,56718,999,14972,.48906954E-3,.197E-5,0
ONEWEB-0683,2023-068K,2026-06-19T06:15:57.301632,13.15549110,.00022655,87.9014,258.7806,102.2717,257.8667,0,U,56719,999,14969,-.2275529E-3,-.73E-6,0
ONEWEB-0684,2023-068L,2026-06-19T06:27:21.713184,13.15548817,.00016605,87.9009,258.7689,142.2518,217.8729,0,U,56720,999,14952,-.2974636E-3,-.99E-6,0
ONEWEB-0686,2023-068M,2026-06-19T04:19:13.618272,13.16595236,.00022556,87.9086,228.3975,104.6844,255.4537,0,U,56721,999,15197,-.9039305E-5,.9E-7,0
ONEWEB-0694,2023-068N,2026-06-19T04:28:20.502624,13.16595060,.00025424,87.9108,228.3611,96.8270,263.3150,0,U,56722,999,15203,.4566398E-4,.3E-6,0
ONEWEB-0696,2023-068P,2026-06-19T05:25:44.436000,13.15546976,.00014833,87.9001,258.8158,104.4555,255.6740,0,U,56723,999,14963,.50437583E-3,.203E-5,0
ONEWEB-0703,2023-068Q,2026-06-19T05:39:26.836992,13.15548824,.00010901,87.9002,258.7949,94.5329,265.5926,0,U,56724,999,14952,.25358788E-3,.108E-5,0
