ONEWEB-0578             
1 56067U 23043X   26170.22212427  .00000122  00000+0  26298-3 0  9998
2 56067  87.9255 243.5676 0002325  96.2875 263.8524 13.21824713158505
ONEWEB-0579             
1 56068U 23043Y   26170.21372076  .00000021  00000+0  19007-4 0  9994
2 56068  87.9261 243.5659 0001760 103.7962 256.3368 13.21826281158513
ONEWEB-0581             
1 56069U 23043Z   26170.20217597 -.00000044  00000+0 -14787-3 0  9996
2 56069  87.9096 228.3843 0002007  81.2651 278.8707 13.16593040159229
ONEWEB-0609             
1 56070U 23043AA  26170.23492535  .00000160  00000+0  38984-3 0  9990
2 56070  87.9001 258.8037 0002023 102.8470 257.2887 13.15549860156707
ONEWEB-0613             
1 56071U 23043AB  26170.23253785  .00000221  00000+0  55197-3 0  9996
2 56071  87.8997 258.8164 0001841 108.6347 251.4984 13.15550159156703
ONEWEB-0630             
1 56072U 23043AC  26170.22779271  .00000103  00000+0  23956-3 0  9996
2 56072  87.9005 258.7888 0001798 105.1197 255.0133 13.15547385156694
ONEWEB-0632             
1 56073U 23043AD  26170.22304870  .00000133  00000+0  31863-3 0  9995
2 56073  87.9002 258.8078 0001898  95.7560 264.3786 13.15548984156696
ONEWEB-0633             
1 56074U 23043AE  26170.21670195  .00000115  00000+0  27113-3 0  9994
2 56074  87.9010 258.7847 0001885 112.9595 247.1734 13.15546758156672
ONEWEB-0634             
1 56075U 23043AF  26170.20244917 -.00000046  00000+0 -15651-3 0  9992
2 56075  87.9002 258.8275 0002340 103.2876 256.8515 13.15548963156665
ONEWEB-0635             
1 56076U 23043AG  26170.19767741 -.00000233  00000+0 -65372-3 0  9999
2 56076  87.9012 258.7910 0001942  92.6599 267.4754 13.15548017156698
ONEWEB-0636             
1 56077U 23043AH  26170.26582576 -.00000121  00000+0 -35588-3 0  9991
2 56077  87.9011 258.7840 0001959  94.8081 265.3273 13.15549916156689
ONEWEB-0637             
1 56078U 23043AJ  26170.25949393 -.00000004  00000+0 -44885-4 0  9996
2 56078  87.9004 258.8016 0002242  95.3266 264.8120 13.15549102156700
ONEWEB-0647             
1 56079U 23043AK  26170.25474435  .00000072  00000+0  15655-3 0  9992
2 56079  87.9003 258.8151 0001823  98.8381 261.2956 13.15549225156692
ONEWEB-0651             
1 56080U 23043AL  26170.24998739  .00000202  00000+0  50229-3 0  9992
2 56080  87.9002 258.8096 0002072  93.7312 266.4055 13.15549411157893
ONEWEB-0718             
1 56081U 23043AM  26170.24522235  .00000499  00000+0  12912-2 0  9991
2 56081  87.9002 258.7912 0002474 112.8648 247.2744 13.15545283156705
ONEWEB-0561             
1 56710U 23068A   26170.24311122  .00000116  00000+0  25245-3 0  9998
2 56710  87.9195 274.0334 0001703  91.9676 268.1653 13.20773099149772
ONEWEB-0668             
1 56711U 23068B   26170.10085600  .00000040  00000+0  70007-4 0  9996
2 56711  87.9096 228.3924 0002602  97.3576 262.7851 13.16594602152037
ONEWEB-0676             
1 56712U 23068C   26170.18476065  .00000007  00000+0 -14071-4 0  9997
2 56712  87.9098 228.3818 0001998  88.0664 272.0695 13.16593488151966
ONEWEB-0677             
1 56713U 23068D   26170.23132072  .00000151  00000+0  33878-3 0  9995
2 56713  87.9198 274.0272 0002225  91.4663 268.6725 13.20770647150076
ONEWEB-0678             
1 56714U 23068E   26170.21353868  .00000069  00000+0  14944-3 0  9993
2 56714  87.9009 258.7898 0001716 103.4028 256.7293 13.15548435149555
ONEWEB-0679             
1 56715U 23068F   26170.21958798  .00000948  00000+0  24446-2 0  9990
2 56715  87.9085 228.3664 0002430  90.4319 269.7090 13.16601138151997
ONEWEB-0680             
1 56716U 23068G   26170.21537844  .00000093  00000+0  19478-3 0  9997
2 56716  87.9260 243.5677 0002599  96.0482 264.0949 13.21828037151362
ONEWEB-0681             
1 56717U 23068H   26170.19603742  .00000000  00000+0 -30771-4 0  9995
2 56717  87.9256 243.5726 0001875  70.6636 289.4700 13.21827416151353
ONEWEB-0682             
1 56718U 23068J   26170.23731417  .00000197  00000+0  48907-3 0  9997
2 56718  87.9009 258.7856 0002496  97.5189 262.6225 13.15549472149722
ONEWEB-0683             
1 56719U 23068K   26170.26107988 -.00000073  00000+0 -22755-3 0  9999
2 56719  87.9014 258.7806 0002265 102.2717 257.8667 13.15549110149690
ONEWEB-0684             
1 56720U 23068L   26170.26900131 -.00000099  00000+0 -29746-3 0  9997
2 56720  87.9009 258.7689 0001660 142.2518 217.8729 13.15548817149526
ONEWEB-0686             
1 56721U 23068M   26170.18001873  .00000009  00000+0 -90393-5 0  9992
2 56721  87.9086 228.3975 0002255 104.6844 255.4537 13.16595236151973
ONEWEB-0694             
1 56722U 23068N   26170.18634841  .00000030  00000+0  45664-4 0  9993
2 56722  87.9108 228.3611 0002542  96.8270 263.3150 13.16595060152032
ONEWEB-0696             
1 56723U 23068P   26170.22620875  .00000203  00000+0  50438-3 0  9997
2 56723  87.9001 258.8158 0001483 104.4555 255.6740 13.15546976149636
ONEWEB-0703             
1 56724U 23068Q   26170.23572728  .00000108  00000+0  25359-3 0  9990
2 56724  87.9002 258.7949 0001090  94.5329 265.5926 13.15548824149525
